IRIDIUM 144             
1 43249U 18030A   24320.84957620  .00000278  00000+0  92171-4 0  9996
2 43249  86.4001 172.1521 0002122  79.9992 280.1443 14.34214896347248
IRIDIUM 149             
1 43250U 18030B   24321.13499312  .00000439  00000+0  14975-3 0  9994
2 43250  86.3999 172.0065 0001873  84.0122 276.1287 14.34219209347302
IRIDIUM 157             
1 43251U 18030C   24320.52608963  .00000483  00000+0  16547-3 0  9997
2 43251  86.3999 172.3013 0001977  89.2330 270.9092 14.34212606347199
IRIDIUM 140             
1 43252U 18030D   24320.89396464  .00000369  00000+0  12480-3 0  9993
2 43252  86.4001 172.1616 0002092  84.6145 275.5290 14.34222707347301
IRIDIUM 145             
1 43253U 18030E   24321.09059988  .00000582  00000+0  20067-3 0  9991
2 43253  86.4000 172.0527 0001997  74.2464 285.8952 14.34217353347268
IRIDIUM 146             
1 43254U 18030F   24320.30411552  .00000506  00000+0  17343-3 0  9993
2 43254  86.4000 172.3954 0001919  74.0021 286.1386 14.34221144347164
IRIDIUM 148             
1 43255U 18030G   24320.83055490  .00000462  00000+0  15787-3 0  9998
2 43255  86.4003 172.2099 0001756  80.5775 279.5619 14.34211909347279
IRIDIUM 142             
1 43256U 18030H   24321.07790924  .00000448  00000+0  15304-3 0  9993
2 43256  86.3999 172.0167 0001785  73.6782 286.4610 14.34219462347270
